PLEIADES NEO 3          
1 48268U 21034A   26197.83236938  .00000507  00000+0  71086-4 0  9992
2 48268  97.8943 272.1723 0001357  95.2536 264.8832 14.81669481282047
PLEIADES NEO 4          
1 49070U 21073E   26197.86612595  .00000095  00000+0  18721-4 0  9996
2 49070  97.8942 272.2016 0001344  91.5893 268.5474 14.81673123265766
